STARLINK-2423           
1 47833U 21018AY  26035.41308716  .00000034  00000+0  21176-4 0  9990
2 47833  53.0539  41.0029 0001443  95.3401 264.7752 15.06397208271635
STARLINK-2424           
1 47834U 21018AZ  26035.50002314  .00051253  00000+0  17800-2 0  9992
2 47834  53.1564  39.1895 0001251  67.0693  50.5543 15.29286467  5789
STARLINK-2426           
1 47836U 21018BB  26035.50002314  .00050918  00000+0  17209-2 0  9994
2 47836  53.1597  39.1676 0001486  67.5522   9.6310 15.30173285  5771
STARLINK-2427           
1 47837U 21018BC  26035.38542859  .00001515  00000+0  12059-3 0  9992
2 47837  53.0556  21.1267 0001577  96.6951 263.4217 15.06408370271863
STARLINK-2429           
1 47838U 21018BD  26035.50002314  .00017153  00000+0  60556-3 0  9994
2 47838  53.1575  39.5463 0001256  81.4998 339.6885 15.29345658  5725
STARLINK-2431           
1 47839U 21018BE  26035.50002314  .01295181  00000+0  64610-1 0  9998
2 47839  53.0878  10.4846 0002203  68.3859  39.1077 15.14258939  5822
STARLINK-2432           
1 47840U 21018BF  26035.17164173  .00001352  00000+0  10961-3 0  9991
2 47840  53.0565  22.0859 0001587  96.9392 263.1778 15.06407914271825
STARLINK-2433           
1 47841U 21018BG  26035.36700288  .00005449  00000+0  38428-3 0  9995
2 47841  53.0553  21.2087 0001428  95.6920 264.4232 15.06412140271853
STARLINK-2435           
1 47843U 21018BJ  26035.39235389 -.00000273  00000+0  59145-6 0  9998
2 47843  53.0569  46.0982 0001516  98.1734 261.9427 15.06396572271522
STARLINK-2446           
1 47844U 21018BK  26035.44243368  .00008811  00000+0  42537-3 0  9990
2 47844  53.1095  40.0727 0001789  87.3867 272.7333 15.19416810271593
STARLINK-2453           
1 47845U 21018BL  26035.40939404 -.00004063  00000+0 -25405-3 0  9992
2 47845  53.0552  41.0179 0001681  93.9703 266.1478 15.06392000271582
STARLINK-2280           
1 47861U 21021B   26035.44999983 -.00001416  00000+0 -36755-4 0  9996
2 47861  53.1602  52.1429 0001307  91.1658 268.9492 15.29352309271312
STARLINK-2291           
1 47862U 21021C   26035.50002314  .00949726  00000+0  32561-1 0  9998
2 47862  53.1448  49.3633 0002035  72.7398  34.9665 15.27121722  5725
STARLINK-2326           
1 47870U 21021L   26035.50002314  .01291833  00000+0  48358-1 0  9998
2 47870  53.1288  74.9965 0001650  53.8513   7.5342 15.23753546  5784
STARLINK-2329           
1 47873U 21021P   26035.50002314  .00124572  00000+0  42758-2 0  9994
2 47873  53.1526  49.6138 0001329  68.8607  61.0635 15.29214780  5773
STARLINK-2330           
1 47874U 21021Q   26035.18964091 -.00004281  00000+0 -26874-3 0  9996
2 47874  53.0570   7.0150 0001736  85.0962 275.0225 15.06388497271916
STARLINK-2336           
1 47879U 21021V   26035.50002314  .00112819  00000+0  47497-2 0  9996
2 47879  53.1221  74.9237 0001365  93.3027 208.7273 15.22486110  5815
