[{"OBJECT_NAME":"STARLINK-2423","OBJECT_ID":"2021-018AY","EPOCH":"2026-02-04T09:54:50.730624","MEAN_MOTION":15.06397208,"ECCENTRICITY":0.0001443,"INCLINATION":53.0539,"RA_OF_ASC_NODE":41.0029,"ARG_OF_PERICENTER":95.3401,"MEAN_ANOMALY":264.7752,"EPHEMERIS_TYPE":0,"CLASSIFICATION_TYPE":"U","NORAD_CAT_ID":47833,"ELEMENT_SET_NO":999,"REV_AT_EPOCH":27163,"BSTAR":2.1176e-5,"MEAN_MOTION_DOT":3.4e-7,"MEAN_MOTION_DDOT":0},{"OBJECT_NAME":"STARLINK-2424","OBJECT_ID":"2021-018AZ","EPOCH":"2026-02-04T12:00:01.999296","MEAN_MOTION":15.29286467,"ECCENTRICITY":0.0001251,"INCLINATION":53.1564,"RA_OF_ASC_NODE":39.1895,"ARG_OF_PERICENTER":67.0693,"MEAN_ANOMALY":50.5543,"EPHEMERIS_TYPE":0,"CLASSIFICATION_TYPE":"U","NORAD_CAT_ID":47834,"ELEMENT_SET_NO":999,"REV_AT_EPOCH":578,"BSTAR":0.00178,"MEAN_MOTION_DOT":0.00051253,"MEAN_MOTION_DDOT":0},{"OBJECT_NAME":"STARLINK-2426","OBJECT_ID":"2021-018BB","EPOCH":"2026-02-04T12:00:01.999296","MEAN_MOTION":15.30173285,"ECCENTRICITY":0.0001486,"INCLINATION":53.1597,"RA_OF_ASC_NODE":39.1676,"ARG_OF_PERICENTER":67.5522,"MEAN_ANOMALY":9.631,"EPHEMERIS_TYPE":0,"CLASSIFICATION_TYPE":"U","NORAD_CAT_ID":47836,"ELEMENT_SET_NO":999,"REV_AT_EPOCH":577,"BSTAR":0.0017209,"MEAN_MOTION_DOT":0.00050918,"MEAN_MOTION_DDOT":0},{"OBJECT_NAME":"STARLINK-2427","OBJECT_ID":"2021-018BC","EPOCH":"2026-02-04T09:15:01.030176","MEAN_MOTION":15.0640837,"ECCENTRICITY":0.0001577,"INCLINATION":53.0556,"RA_OF_ASC_NODE":21.1267,"ARG_OF_PERICENTER":96.6951,"MEAN_ANOMALY":263.4217,"EPHEMERIS_TYPE":0,"CLASSIFICATION_TYPE":"U","NORAD_CAT_ID":47837,"ELEMENT_SET_NO":999,"REV_AT_EPOCH":27186,"BSTAR":0.00012059,"MEAN_MOTION_DOT":1.515e-5,"MEAN_MOTION_DDOT":0},{"OBJECT_NAME":"STARLINK-2429","OBJECT_ID":"2021-018BD","EPOCH":"2026-02-04T12:00:01.999296","MEAN_MOTION":15.29345658,"ECCENTRICITY":0.0001256,"INCLINATION":53.1575,"RA_OF_ASC_NODE":39.5463,"ARG_OF_PERICENTER":81.4998,"MEAN_ANOMALY":339.6885,"EPHEMERIS_TYPE":0,"CLASSIFICATION_TYPE":"U","NORAD_CAT_ID":47838,"ELEMENT_SET_NO":999,"REV_AT_EPOCH":572,"BSTAR":0.00060556,"MEAN_MOTION_DOT":0.00017153,"MEAN_MOTION_DDOT":0},{"OBJECT_NAME":"STARLINK-2431","OBJECT_ID":"2021-018BE","EPOCH":"2026-02-04T12:00:01.999296","MEAN_MOTION":15.14258939,"ECCENTRICITY":0.0002203,"INCLINATION":53.0878,"RA_OF_ASC_NODE":10.4846,"ARG_OF_PERICENTER":68.3859,"MEAN_ANOMALY":39.1077,"EPHEMERIS_TYPE":0,"CLASSIFICATION_TYPE":"U","NORAD_CAT_ID":47839,"ELEMENT_SET_NO":999,"REV_AT_EPOCH":582,"BSTAR":0.06461,"MEAN_MOTION_DOT":0.01295181,"MEAN_MOTION_DDOT":0},{"OBJECT_NAME":"STARLINK-2432","OBJECT_ID":"2021-018BF","EPOCH":"2026-02-04T04:07:09.845472","MEAN_MOTION":15.06407914,"ECCENTRICITY":0.00015874,"INCLINATION":53.0565,"RA_OF_ASC_NODE":22.0859,"ARG_OF_PERICENTER":96.9392,"MEAN_ANOMALY":263.1778,"EPHEMERIS_TYPE":0,"CLASSIFICATION_TYPE":"U","NORAD_CAT_ID":47840,"ELEMENT_SET_NO":999,"REV_AT_EPOCH":27182,"BSTAR":0.00010961412,"MEAN_MOTION_DOT":1.352e-5,"MEAN_MOTION_DDOT":0},{"OBJECT_NAME":"STARLINK-2433","OBJECT_ID":"2021-018BG","EPOCH":"2026-02-04T08:48:29.048832","MEAN_MOTION":15.0641214,"ECCENTRICITY":0.0001428,"INCLINATION":53.0553,"RA_OF_ASC_NODE":21.2087,"ARG_OF_PERICENTER":95.692,"MEAN_ANOMALY":264.4232,"EPHEMERIS_TYPE":0,"CLASSIFICATION_TYPE":"U","NORAD_CAT_ID":47841,"ELEMENT_SET_NO":999,"REV_AT_EPOCH":27185,"BSTAR":0.00038428,"MEAN_MOTION_DOT":5.449e-5,"MEAN_MOTION_DDOT":0},{"OBJECT_NAME":"STARLINK-2435","OBJECT_ID":"2021-018BJ","EPOCH":"2026-02-04T09:24:59.376096","MEAN_MOTION":15.06396572,"ECCENTRICITY":0.0001516,"INCLINATION":53.0569,"RA_OF_ASC_NODE":46.0982,"ARG_OF_PERICENTER":98.1734,"MEAN_ANOMALY":261.9427,"EPHEMERIS_TYPE":0,"CLASSIFICATION_TYPE":"U","NORAD_CAT_ID":47843,"ELEMENT_SET_NO":999,"REV_AT_EPOCH":27152,"BSTAR":5.9145e-7,"MEAN_MOTION_DOT":-2.73e-6,"MEAN_MOTION_DDOT":0},{"OBJECT_NAME":"STARLINK-2446","OBJECT_ID":"2021-018BK","EPOCH":"2026-02-04T10:37:06.269952","MEAN_MOTION":15.1941681,"ECCENTRICITY":0.0001789,"INCLINATION":53.1095,"RA_OF_ASC_NODE":40.0727,"ARG_OF_PERICENTER":87.3867,"MEAN_ANOMALY":272.7333,"EPHEMERIS_TYPE":0,"CLASSIFICATION_TYPE":"U","NORAD_CAT_ID":47844,"ELEMENT_SET_NO":999,"REV_AT_EPOCH":27159,"BSTAR":0.00042537,"MEAN_MOTION_DOT":8.811e-5,"MEAN_MOTION_DDOT":0},{"OBJECT_NAME":"STARLINK-2453","OBJECT_ID":"2021-018BL","EPOCH":"2026-02-04T09:49:31.645056","MEAN_MOTION":15.06392,"ECCENTRICITY":0.0001681,"INCLINATION":53.0552,"RA_OF_ASC_NODE":41.0179,"ARG_OF_PERICENTER":93.9703,"MEAN_ANOMALY":266.1478,"EPHEMERIS_TYPE":0,"CLASSIFICATION_TYPE":"U","NORAD_CAT_ID":47845,"ELEMENT_SET_NO":999,"REV_AT_EPOCH":27158,"BSTAR":-0.00025405,"MEAN_MOTION_DOT":-4.063e-5,"MEAN_MOTION_DDOT":0},{"OBJECT_NAME":"STARLINK-2280","OBJECT_ID":"2021-021B","EPOCH":"2026-02-04T10:47:59.985312","MEAN_MOTION":15.29352309,"ECCENTRICITY":0.0001307,"INCLINATION":53.1602,"RA_OF_ASC_NODE":52.1429,"ARG_OF_PERICENTER":91.1658,"MEAN_ANOMALY":268.9492,"EPHEMERIS_TYPE":0,"CLASSIFICATION_TYPE":"U","NORAD_CAT_ID":47861,"ELEMENT_SET_NO":999,"REV_AT_EPOCH":27131,"BSTAR":-3.6755e-5,"MEAN_MOTION_DOT":-1.416e-5,"MEAN_MOTION_DDOT":0},{"OBJECT_NAME":"STARLINK-2291","OBJECT_ID":"2021-021C","EPOCH":"2026-02-04T12:00:01.999296","MEAN_MOTION":15.27121722,"ECCENTRICITY":0.0002035,"INCLINATION":53.1448,"RA_OF_ASC_NODE":49.3633,"ARG_OF_PERICENTER":72.7398,"MEAN_ANOMALY":34.9665,"EPHEMERIS_TYPE":0,"CLASSIFICATION_TYPE":"U","NORAD_CAT_ID":47862,"ELEMENT_SET_NO":999,"REV_AT_EPOCH":572,"BSTAR":0.032561,"MEAN_MOTION_DOT":0.00949726,"MEAN_MOTION_DDOT":0},{"OBJECT_NAME":"STARLINK-2326","OBJECT_ID":"2021-021L","EPOCH":"2026-02-04T12:00:01.999296","MEAN_MOTION":15.23753546,"ECCENTRICITY":0.000165,"INCLINATION":53.1288,"RA_OF_ASC_NODE":74.9965,"ARG_OF_PERICENTER":53.8513,"MEAN_ANOMALY":7.5342,"EPHEMERIS_TYPE":0,"CLASSIFICATION_TYPE":"U","NORAD_CAT_ID":47870,"ELEMENT_SET_NO":999,"REV_AT_EPOCH":578,"BSTAR":0.048358,"MEAN_MOTION_DOT":0.01291833,"MEAN_MOTION_DDOT":0},{"OBJECT_NAME":"STARLINK-2329","OBJECT_ID":"2021-021P","EPOCH":"2026-02-04T12:00:01.999296","MEAN_MOTION":15.2921478,"ECCENTRICITY":0.0001329,"INCLINATION":53.1526,"RA_OF_ASC_NODE":49.6138,"ARG_OF_PERICENTER":68.8607,"MEAN_ANOMALY":61.0635,"EPHEMERIS_TYPE":0,"CLASSIFICATION_TYPE":"U","NORAD_CAT_ID":47873,"ELEMENT_SET_NO":999,"REV_AT_EPOCH":577,"BSTAR":0.0042758,"MEAN_MOTION_DOT":0.00124572,"MEAN_MOTION_DDOT":0},{"OBJECT_NAME":"STARLINK-2330","OBJECT_ID":"2021-021Q","EPOCH":"2026-02-04T04:33:04.974624","MEAN_MOTION":15.06388497,"ECCENTRICITY":0.00017361,"INCLINATION":53.057,"RA_OF_ASC_NODE":7.015,"ARG_OF_PERICENTER":85.0962,"MEAN_ANOMALY":275.0225,"EPHEMERIS_TYPE":0,"CLASSIFICATION_TYPE":"U","NORAD_CAT_ID":47874,"ELEMENT_SET_NO":999,"REV_AT_EPOCH":27191,"BSTAR":-0.00026873937,"MEAN_MOTION_DOT":-4.281e-5,"MEAN_MOTION_DDOT":0},{"OBJECT_NAME":"STARLINK-2336","OBJECT_ID":"2021-021V","EPOCH":"2026-02-04T12:00:01.999296","MEAN_MOTION":15.2248611,"ECCENTRICITY":0.0001365,"INCLINATION":53.1221,"RA_OF_ASC_NODE":74.9237,"ARG_OF_PERICENTER":93.3027,"MEAN_ANOMALY":208.7273,"EPHEMERIS_TYPE":0,"CLASSIFICATION_TYPE":"U","NORAD_CAT_ID":47879,"ELEMENT_SET_NO":999,"REV_AT_EPOCH":581,"BSTAR":0.0047497,"MEAN_MOTION_DOT":0.00112819,"MEAN_MOTION_DDOT":0}]
